     2.100          NAVIGATION                              RINEX VERSION / TYPE
fic2rin                                 01/24/2016 00:10:03 PGM / RUN BY / DATE
                                                            END OF HEADER
11 16  1 23  7 59 44.0 -.628654845059D-03 -.181898940355D-11  .000000000000D+00
     .300000000000D+01 -.114531250000D+03  .591596070922D-08  .112346884554D+01
    -.612251460552D-05  .162214573938D-01  .100657343864D-04  .515365515518D+04
     .547184000000D+06 -.294297933578D-06 -.273962362763D+00 -.240281224251D-06
     .895812831457D+00  .156312500000D+03  .149569128148D+01 -.882393898105D-08
    -.814319633967D-10  .100000000000D+01  .188000000000D+04  .000000000000D+00
     .240000000000D+01  .000000000000D+00 -.121071934700D-07  .300000000000D+01
     .540006000000D+06  .400000000000D+01
 1 16  1 23  8  0  0.0  .984221696854D-05  .909494701773D-12  .000000000000D+00
     .350000000000D+02 -.587500000000D+02  .422303304913D-08  .170241470358D+01
    -.298209488392D-05  .499390694313D-02  .119805335999D-04  .515366146851D+04
     .547200000000D+06 -.875443220139D-07  .939311157166D-01  .782310962677D-07
     .964097953110D+00  .150593750000D+03  .475904104002D+00 -.777996692399D-08
     .179650340301D-09  .100000000000D+01  .188000000000D+04  .000000000000D+00
     .240000000000D+01  .000000000000D+00  .512227416039D-08  .350000000000D+02
     .540006000000D+06  .400000000000D+01
 2 16  1 23  8  0  0.0  .599352177233D-03  .227373675443D-12  .000000000000D+00
     .810000000000D+02 -.883437500000D+02  .449554440033D-08  .221330716328D+01
    -.475905835629D-05  .153038566932D-01  .128410756588D-04  .515371926689D+04
     .547200000000D+06 -.987201929092D-07  .511439261898D-01 -.314787030220D-06
     .942818459373D+00  .121312500000D+03 -.218068272667D+01 -.778139555493D-08
     .205722854897D-09  .100000000000D+01  .188000000000D+04  .000000000000D+00
     .240000000000D+01  .000000000000D+00 -.204890966415D-07  .810000000000D+02
     .540006000000D+06  .400000000000D+01
 3 16  1 23  8  0  0.0 -.151987187564D-04 -.500222085975D-11  .000000000000D+00
     .186000000000D+03  .325000000000D+02  .489734685130D-08 -.180994721237D+01
     .163353979588D-05  .307838432491D-03  .612065196037D-05  .515377440834D+04
     .547200000000D+06  .931322574615D-08  .113471067170D+01  .186264514923D-07
     .958970144361D+00  .259343750000D+03  .293920297415D+01 -.817141180067D-08
     .406445501515D-09  .100000000000D+01  .188000000000D+04  .000000000000D+00
     .340000000000D+01  .000000000000D+00  .186264514923D-08  .186000000000D+03
     .540006000000D+06  .400000000000D+01
 5 16  1 23  8  0  0.0 -.152816064656D-03  .352429196937D-11  .000000000000D+00
     .113000000000D+03  .310625000000D+02  .512949937852D-08 -.163191488195D+01
     .159256160259D-05  .458271196112D-02  .633113086224D-05  .515370996284D+04
     .547200000000D+06  .391155481339D-07  .112447254924D+01 -.838190317154D-07
     .946099527151D+00  .249843750000D+03  .485364779128D+00 -.824712924032D-08
     .477162732886D-09  .100000000000D+01  .188000000000D+04  .000000000000D+00
     .240000000000D+01  .000000000000D+00 -.107102096081D-07  .113000000000D+03
     .540006000000D+06  .400000000000D+01
 6 16  1 23  8  0  0.0  .133683439344D-03  .613908923697D-11  .000000000000D+00
     .105000000000D+03 -.713437500000D+02  .411409994020D-08  .295994449000D+01
    -.368431210518D-05  .246216426603D-03  .125486403704D-04  .515363219643D+04
     .547200000000D+06 -.409781932831D-07  .854845705126D-01  .316649675369D-07
     .963949281134D+00  .135906250000D+03 -.233468119289D+01 -.771675000504D-08
     .193579491934D-09  .100000000000D+01  .188000000000D+04  .000000000000D+00
     .240000000000D+01  .000000000000D+00  .419095158577D-08  .105000000000D+03
     .540006000000D+06  .400000000000D+01
 7 16  1 23  8  0  0.0  .472672283649D-03 -.147792889038D-11  .000000000000D+00
     .102000000000D+03  .862187500000D+02  .403552523868D-08  .100801991210D+01
     .455230474472D-05  .903511350043D-02  .114925205708D-04  .515368367386D+04
     .547200000000D+06 -.931322574615D-07 -.303003374806D+01  .128522515297D-06
     .968161294387D+00  .163031250000D+03 -.268089785640D+01 -.774889420112D-08
    -.187150652719D-09  .100000000000D+01  .188000000000D+04  .000000000000D+00
     .485000000000D+01  .000000000000D+00 -.111758708954D-07  .102000000000D+03
     .540006000000D+06  .400000000000D+01
 8 16  1 23  8  0  0.0 -.210856087506D-04 -.147792889038D-11  .000000000000D+00
     .116000000000D+03 -.104156250000D+03  .473269713583D-08 -.121271883845D+01
    -.537186861038D-05  .176204682793D-02  .360794365406D-05  .515363796425D+04
     .547200000000D+06 -.707805156708D-07 -.965217448244D+00  .186264514923D-08
     .961818529248D+00  .312281250000D+03 -.144782176825D+01 -.835177645644D-08
    -.287511976028D-09  .100000000000D+01  .188000000000D+04  .000000000000D+00
     .240000000000D+01  .000000000000D+00  .465661287308D-08  .116000000000D+03
     .540006000000D+06  .400000000000D+01
 9 16  1 23  8  0  0.0  .556767918169D-04  .784439180279D-11  .000000000000D+00
     .280000000000D+02 -.307812500000D+02  .485234497679D-08 -.246514176950D+01
    -.163167715073D-05  .611893367022D-03  .717677175999D-05  .515364468956D+04
     .547200000000D+06  .242143869400D-07  .217584925411D+01  .186264514923D-07
     .955437924270D+00  .239312500000D+03  .190528622289D+01 -.810998067039D-08
    -.556451749877D-09  .100000000000D+01  .188000000000D+04  .000000000000D+00
     .240000000000D+01  .000000000000D+00  .139698386192D-08  .280000000000D+02
     .540006000000D+06  .400000000000D+01
10 16  1 23  8  0  0.0  .489889644086D-04 -.125055521494D-11  .000000000000D+00
     .870000000000D+02  .279375000000D+02  .481055752189D-08 -.378127275090D+00
     .127404928207D-05  .104891252704D-02  .645592808723D-05  .515367854691D+04
     .547200000000D+06  .186264514923D-07  .113059846750D+01  .000000000000D+00
     .959239884511D+00  .255156250000D+03 -.293966437412D+01 -.813498171178D-08
     .359300680601D-09  .100000000000D+01  .188000000000D+04  .000000000000D+00
     .340000000000D+01  .000000000000D+00  .232830643654D-08  .870000000000D+02
     .540006000000D+06  .400000000000D+01
12 16  1 23  8  0  0.0  .362945254892D-03  .272848410532D-11  .000000000000D+00
     .770000000000D+02  .978437500000D+02  .418338854064D-08  .642969573944D+00
     .490993261337D-05  .574181159027D-02  .260211527348D-05  .515354167938D+04
     .547200000000D+06 -.223517417908D-07 -.195685453722D+01  .521540641785D-07
     .990131308863D+00  .346625000000D+03  .643250002173D+00 -.825034365993D-08
     .305369862738D-09  .100000000000D+01  .188000000000D+04  .000000000000D+00
     .240000000000D+01  .000000000000D+00 -.121071934700D-07  .770000000000D+02
     .540006000000D+06  .400000000000D+01
13 16  1 23  8  0  0.0 -.180346891284D-03 -.261479726760D-11  .000000000000D+00
     .630000000000D+02 -.282500000000D+02  .432196574151D-08  .195751490137D+01
    -.143796205521D-05  .467315339483D-02  .818446278572D-05  .515367848396D+04
     .547200000000D+06  .128522515297D-06  .229466737274D+01  .540167093277D-07
     .972043244063D+00  .227562500000D+03  .199044324897D+01 -.778961018282D-08
    -.613239829615D-09  .100000000000D+01  .188000000000D+04  .000000000000D+00
     .240000000000D+01  .000000000000D+00 -.111758708954D-07  .630000000000D+02
     .540006000000D+06  .400000000000D+01
14 16  1 23  8  0  0.0  .750692561269D-05 -.227373675443D-11  .000000000000D+00
     .700000000000D+02 -.379375000000D+02  .449661587353D-08 -.248633769989D+01
    -.189058482647D-05  .829935702495D-02  .757724046707D-05  .515370808220D+04
     .547200000000D+06  .428408384323D-07  .225844160340D+01 -.104308128357D-06
     .964501206478D+00  .235750000000D+03 -.195100972892D+01 -.779353891789D-08
    -.520735976458D-09  .100000000000D+01  .188000000000D+04  .000000000000D+00
     .240000000000D+01  .000000000000D+00 -.931322574615D-08  .700000000000D+02
     .540006000000D+06  .400000000000D+01
16 16  1 23  8  0  0.0 -.459696166217D-04  .329691829393D-11  .000000000000D+00
     .720000000000D+02  .787187500000D+02  .407016953890D-08 -.144848619492D+01
     .392831861973D-05  .843158503994D-02  .227615237236D-05  .515369426727D+04
     .547200000000D+06  .726431608200D-07 -.193809552114D+01 -.800937414169D-07
     .990641479600D+00  .347156250000D+03  .316622948434D+00 -.807962226298D-08
     .399302346831D-09  .100000000000D+01  .188000000000D+04  .000000000000D+00
     .240000000000D+01  .000000000000D+00 -.102445483208D-07  .720000000000D+02
     .540006000000D+06  .400000000000D+01
17 16  1 23  8  0  0.0 -.199328642339D-03 -.795807864051D-12  .000000000000D+00
     .690000000000D+02 -.133562500000D+03  .432839458072D-08 -.242463034800D+01
    -.675767660141D-05  .109498315724D-01  .410713255405D-05  .515363361931D+04
     .547200000000D+06  .176951289177D-06 -.914322522414D+00  .707805156708D-07
     .975000386668D+00  .304031250000D+03 -.196083037113D+01 -.806426448041D-08
    -.267153985179D-09  .100000000000D+01  .188000000000D+04  .000000000000D+00
     .340000000000D+01  .000000000000D+00 -.107102096081D-07  .690000000000D+02
     .540006000000D+06  .400000000000D+01
18 16  1 23  8  0  0.0  .475901644677D-03  .386535248253D-11  .000000000000D+00
     .290000000000D+02  .370312500000D+02  .577238330008D-08 -.871393017291D+00
     .209920108318D-05  .165345487185D-01  .629201531410D-05  .515364882469D+04
     .547200000000D+06 -.121071934700D-06  .110608556785D+01  .314787030220D-06
     .924738431845D+00  .241562500000D+03 -.191705121928D+01 -.883572518628D-08
     .387516141603D-09  .100000000000D+01  .188000000000D+04  .000000000000D+00
     .240000000000D+01  .000000000000D+00 -.111758708954D-07  .290000000000D+02
     .540006000000D+06  .400000000000D+01
